NORAD_CAT_ID,OBJECT_NAME,OBJECT_TYPE,EPOCH,MEAN_MOTION,ECCENTRICITY,INCLINATION,RA_OF_ASC_NODE,ARG_OF_PERICENTER,MEAN_ANOMALY,BSTAR,MEAN_MOTION_DOT,MEAN_MOTION_DDOT,TLE_LINE0,TLE_LINE1,TLE_LINE2,SEMIMAJOR_AXIS,PERIOD,APOGEE,PERIGEE,DECAYED
56484.0,STARLINK-6221,PAYLOAD,2024-01-05 07:53:31,14.98337184,0.0002571,70.0016,327.2457,265.5484,94.5381,-0.00020727,-2.566e-05,0.0,0 STARLINK-6221,1 56484U 23064AN  24005.32884147 -.00002566  00000-0 -20727-3 0  9992,2 56484  70.0016 327.2457 0002571 265.5484  94.5381 14.98337184 37112,6950.171,96.107,573.823,570.249,0.0
56484.0,STARLINK-6221,PAYLOAD,2024-01-05 22:18:44,14.98333946,0.0002737,70.0014,325.7314,263.7613,96.3234,2.4761e-05,2.03e-06,0.0,0 STARLINK-6221,1 56484U 23064AN  24005.92967728  .00000203  00000-0  24761-4 0  9992,2 56484  70.0014 325.7314 0002737 263.7613  96.3234 14.98333946 36841,6950.181,96.107,573.948,570.143,0.0
56484.0,STARLINK-6221,PAYLOAD,2024-01-06 07:55:32,14.98336343,0.0002712,70.0014,324.7214,263.7644,96.3207,5.108e-05,5.17e-06,0.0,0 STARLINK-6221,1 56484U 23064AN  24006.33023380  .00000517  00000-0  51080-4 0  9997,2 56484  70.0014 324.7214 0002712 263.7644  96.3207 14.98336343 37267,6950.173,96.107,573.923,570.153,0.0
56484.0,STARLINK-6221,PAYLOAD,2024-01-06 22:20:45,14.98327717,0.0002772,70.001,323.2059,265.5482,94.536,3.4947e-06,-5.1e-07,0.0,0 STARLINK-6221,1 56484U 23064AN  24006.93107987 -.00000051  00000-0  34947-5 0  9997,2 56484  70.0010 323.2059 0002772 265.5482  94.5360 14.98327717 36994,6950.2,96.107,573.992,570.138,0.0
56484.0,STARLINK-6221,PAYLOAD,2024-01-07 03:09:09,14.98327451,0.0002768,70.0011,322.7011,265.079,95.0053,-8.9885e-07,-1.04e-06,0.0,0 STARLINK-6221,1 56484U 23064AN  24007.13136026 -.00000104  00000-0 -89885-6 0  9998,2 56484  70.0011 322.7011 0002768 265.0790  95.0053 14.98327451 37383,6950.201,96.107,573.99,570.142,0.0
56484.0,STARLINK-6221,PAYLOAD,2024-01-07 06:21:25,14.9832908,0.00028,70.0009,322.3639,267.8674,92.2164,1.7202e-05,1.12e-06,0.0,0 STARLINK-6221,1 56484U 23064AN  24007.26487887  .00000112  00000-0  17202-4 0  9995,2 56484  70.0009 322.3639 0002800 267.8674  92.2164 14.98329080 37045,6950.196,96.107,574.007,570.115,0.0
56484.0,STARLINK-6221,PAYLOAD,2024-01-07 22:22:46,14.98331255,0.0002724,70.001,320.6804,266.021,94.0638,-6.2326e-05,-8.37e-06,0.0,0 STARLINK-6221,1 56484U 23064AN  24007.93247958 -.00000837  00000-0 -62326-4 0  9995,2 56484  70.0010 320.6804 0002724 266.0210  94.0638 14.98331255 37148,6950.189,96.107,573.947,570.161,0.0
56484.0,STARLINK-6221,PAYLOAD,2024-01-08 03:11:10,14.98329658,0.0002727,70.001,320.1752,264.7905,95.2943,-5.3524e-05,-7.32e-06,0.0,0 STARLINK-6221,1 56484U 23064AN  24008.13276012 -.00000732  00000-0 -53524-4 0  9995,2 56484  70.0010 320.1752 0002727 264.7905  95.2943 14.98329658 37533,6950.194,96.107,573.954,570.164,0.0
56484.0,STARLINK-6221,PAYLOAD,2024-01-08 06:23:26,14.98332455,0.000272,70.001,319.839,266.4476,93.6372,-4.1102e-05,-5.83e-06,0.0,0 STARLINK-6221,1 56484U 23064AN  24008.26627791 -.00000583  00000-0 -41102-4 0  9996,2 56484  70.0010 319.8390 0002720 266.4476  93.6372 14.98332455 37190,6950.185,96.107,573.941,570.16,0.0
56484.0,STARLINK-6221,PAYLOAD,2024-01-08 22:24:47,14.98325498,0.0002742,70.001,318.1563,266.9308,93.1538,-2.0045e-05,-3.32e-06,0.0,0 STARLINK-6221,1 56484U 23064AN  24008.93388187 -.00000332  00000-0 -20045-4 0  9998,2 56484  70.0010 318.1563 0002742 266.9308  93.1538 14.98325498 37296,6950.207,96.107,573.978,570.166,0.0
56484.0,STARLINK-6221,PAYLOAD,2024-01-09 04:49:19,14.98327816,0.0002713,70.0012,317.4829,266.7171,93.3677,8.9482e-06,1.4e-07,0.0,0 STARLINK-6221,1 56484U 23064AN  24009.20092022  .00000014  00000-0  89482-5 0  9995,2 56484  70.0012 317.4829 0002713 266.7171  93.3677 14.98327816 37695,6950.2,96.107,573.95,570.179,0.0
56484.0,STARLINK-6221,PAYLOAD,2024-01-09 06:25:27,14.98328886,0.0002713,70.0012,317.3148,266.7549,93.33,2.0477e-05,1.51e-06,0.0,0 STARLINK-6221,1 56484U 23064AN  24009.26767932  .00000151  00000-0  20477-4 0  9990,2 56484  70.0012 317.3148 0002713 266.7549  93.3300 14.98328886 37340,6950.196,96.107,573.947,570.176,0.0
56484.0,STARLINK-6221,PAYLOAD,2024-01-09 22:26:47,14.98331352,0.0002671,70.0014,315.6321,264.7209,95.3646,3.6324e-05,3.41e-06,0.0,0 STARLINK-6221,1 56484U 23064AN  24009.93527734  .00000341  00000-0  36324-4 0  9997,2 56484  70.0014 315.6321 0002671 264.7209  95.3646 14.98331352 37448,6950.189,96.107,573.91,570.197,0.0
56484.0,STARLINK-6221,PAYLOAD,2024-01-10 04:51:20,14.98332875,0.0002639,70.0014,314.959,264.5652,95.5206,5.462e-05,5.59e-06,0.0,0 STARLINK-6221,1 56484U 23064AN  24010.20231558  .00000559  00000-0  54620-4 0  9995,2 56484  70.0014 314.9590 0002639 264.5652  95.5206 14.98332875 37841,6950.184,96.107,573.883,570.215,0.0
56484.0,STARLINK-6221,PAYLOAD,2024-01-10 06:27:28,14.98333543,0.0002636,70.0014,314.7909,264.2035,95.8823,6.0802e-05,6.33e-06,0.0,0 STARLINK-6221,1 56484U 23064AN  24010.26907486  .00000633  00000-0  60802-4 0  9993,2 56484  70.0014 314.7909 0002636 264.2035  95.8823 14.98333543 37494,6950.182,96.107,573.879,570.215,0.0
56484.0,STARLINK-6221,PAYLOAD,2024-01-11 06:29:29,14.98319298,0.0002527,70.0021,312.2647,265.1591,94.928,0.00031292,3.642e-05,0.0,0 STARLINK-6221,1 56484U 23064AN  24011.27047687  .00003642  00000-0  31292-3 0  9996,2 56484  70.0021 312.2647 0002527 265.1591  94.9280 14.98319298 38006,6950.226,96.108,573.847,570.335,0.0
56484.0,STARLINK-6221,PAYLOAD,2024-01-11 22:30:50,14.98324978,0.0002735,70.0012,310.5817,263.98,96.1047,-9.557e-05,-1.233e-05,0.0,0 STARLINK-6221,1 56484U 23064AN  24011.93808425 -.00001233  00000-0 -95570-4 0  9990,2 56484  70.0012 310.5817 0002735 263.9800  96.1047 14.98324978 37742,6950.208,96.107,573.974,570.173,0.0
56484.0,STARLINK-6221,PAYLOAD,2024-01-12 04:55:22,14.9832627,0.0002499,70.0019,309.9088,257.2375,102.8504,-5.949e-05,-8.03e-06,0.0,0 STARLINK-6221,1 56484U 23064AN  24012.20512236 -.00000803  00000-0 -59490-4 0  9996,2 56484  70.0019 309.9088 0002499 257.2375 102.8504 14.98326270 37785,6950.204,96.107,573.806,570.333,0.0
56484.0,STARLINK-6221,PAYLOAD,2024-01-12 22:32:51,14.98328736,0.0002674,70.0013,308.0564,261.486,98.5996,-3.3683e-05,-4.95e-06,0.0,0 STARLINK-6221,1 56484U 23064AN  24012.93948081 -.00000495  00000-0 -33683-4 0  9990,2 56484  70.0013 308.0564 0002674 261.4860  98.5996 14.98328736 37896,6950.197,96.107,573.92,570.203,0.0
56484.0,STARLINK-6221,PAYLOAD,2024-01-13 03:21:15,14.98331125,0.0002672,70.0014,307.5518,256.4342,103.6519,1.9792e-05,1.43e-06,0.0,0 STARLINK-6221,1 56484U 23064AN  24013.13975750  .00000143  00000-0  19792-4 0  9999,2 56484  70.0014 307.5518 0002672 256.4342 103.6519 14.98331125 38286,6950.189,96.107,573.912,570.197,0.0
56484.0,STARLINK-6221,PAYLOAD,2024-01-13 04:57:23,14.98332356,0.0002602,70.0013,307.3832,256.9083,103.1786,1.0201e-05,2.9e-07,0.0,0 STARLINK-6221,1 56484U 23064AN  24013.20651709  .00000029  00000-0  10201-4 0  9991,2 56484  70.0013 307.3832 0002602 256.9083 103.1786 14.98332356 37931,6950.186,96.107,573.859,570.242,0.0
56484.0,STARLINK-6221,PAYLOAD,2024-01-14 03:23:16,14.98327194,0.0002545,70.0015,305.0276,248.4118,111.677,7.7075e-05,8.27e-06,0.0,0 STARLINK-6221,1 56484U 23064AN  24014.14115926  .00000827  00000-0  77075-4 0  9999,2 56484  70.0015 305.0276 0002545 248.4118 111.6770 14.98327194 38438,6950.202,96.107,573.835,570.298,0.0
56484.0,STARLINK-6221,PAYLOAD,2024-01-14 04:59:24,14.98327617,0.0002543,70.0015,304.8594,248.7937,111.295,7.9599e-05,8.57e-06,0.0,0 STARLINK-6221,1 56484U 23064AN  24014.20791903  .00000857  00000-0  79599-4 0  9997,2 56484  70.0015 304.8594 0002543 248.7937 111.2950 14.98327617 38085,6950.2,96.107,573.833,570.298,0.0
56484.0,STARLINK-6221,PAYLOAD,2024-01-14 22:36:52,14.98336989,0.0002551,70.001,303.007,255.5867,104.5009,6.8039e-05,7.19e-06,0.0,0 STARLINK-6221,1 56484U 23064AN  24014.94227242  .00000719  00000-0  68039-4 0  9992,2 56484  70.0010 303.0070 0002551 255.5867 104.5009 14.98336989 38191,6950.171,96.107,573.809,570.263,0.0
56484.0,STARLINK-6221,PAYLOAD,2024-01-15 03:25:16,14.98339751,0.0002499,70.0013,302.5027,253.5706,106.5179,9.8847e-05,1.087e-05,0.0,0 STARLINK-6221,1 56484U 23064AN  24015.14254877  .00001087  00000-0  98847-4 0  9998,2 56484  70.0013 302.5027 0002499 253.5706 106.5179 14.98339751 38584,6950.163,96.106,573.765,570.291,0.0
56484.0,STARLINK-6221,PAYLOAD,2024-01-15 05:01:24,14.98341021,0.0002514,70.0013,302.3349,255.7243,104.3637,0.00010835,1.2e-05,0.0,0 STARLINK-6221,1 56484U 23064AN  24015.20930737  .00001200  00000-0  10835-3 0  9998,2 56484  70.0013 302.3349 0002514 255.7243 104.3637 14.98341021 38237,6950.159,96.106,573.771,570.277,0.0
56484.0,STARLINK-6221,PAYLOAD,2024-01-15 19:26:37,14.98328947,0.0001972,70.0032,300.8243,255.9785,104.1155,4.3951e-05,4.32e-06,0.0,0 STARLINK-6221,1 56484U 23064AN  24015.81015665  .00000432  00000-0  43951-4 0  9991,2 56484  70.0032 300.8243 0001972 255.9785 104.1155 14.98328947 38688,6950.196,96.107,573.432,570.691,0.0
56484.0,STARLINK-6221,PAYLOAD,2024-01-15 21:02:45,14.98328359,0.0002464,70.0029,300.6569,240.2151,119.8763,-3.0009e-05,-4.51e-06,0.0,0 STARLINK-6221,1 56484U 23064AN  24015.87691788 -.00000451  00000-0 -30009-4 0  9996,2 56484  70.0029 300.6569 0002464 240.2151 119.8763 14.98328359 38331,6950.198,96.107,573.775,570.35,0.0
56484.0,STARLINK-6221,PAYLOAD,2024-01-16 05:03:26,14.98327036,0.0002944,70.0001,299.81,269.3434,90.7388,-8.1214e-05,-1.062e-05,0.0,0 STARLINK-6221,1 56484U 23064AN  24016.21072069 -.00001062  00000-0 -81214-4 0  9993,2 56484  70.0001 299.8100 0002944 269.3434  90.7388 14.98327036 38746,6950.202,96.107,574.113,570.021,0.0
56484.0,STARLINK-6221,PAYLOAD,2024-01-16 22:40:54,14.98333042,0.0003276,70.0002,297.9572,276.0243,84.0543,-4.9437e-05,-6.83e-06,0.0,0 STARLINK-6221,1 56484U 23064AN  24016.94507614 -.00000683  00000-0 -49437-4 0  9991,2 56484  70.0002 297.9572 0003276 276.0243  84.0543 14.98333042 38496,6950.183,96.107,574.325,569.772,0.0
